ISS (ZARYA)             
1 25544U 98067A   26085.80952178  .00012890  00000+0  24531-3 0  9998
2 25544  51.6341 347.7277 0006206 236.0994 123.9405 15.48566257558984
POISK                   
1 36086U 09060A   26085.80952178  .00012890  00000+0  24531-3 0  9996
2 36086  51.6341 347.7277 0006206 236.0994 123.9405 15.48566257558763
CSS (TIANHE)            
1 48274U 21035A   26085.47667690  .00022078  00000+0  25348-3 0  9995
2 48274  41.4668 105.9518 0004375  27.8564 332.2509 15.61516360280239
ISS (NAUKA)             
1 49044U 21066A   26085.80952178  .00012890  00000+0  24531-3 0  9994
2 49044  51.6341 347.7277 0006206 236.0994 123.9405 15.48566257558806
FREGAT DEB              
1 49271U 11037PF  26085.84634022  .00010762  00000+0  15290-1 0  9998
2 49271  51.6481 249.2403 0962037  98.7334 272.3546 12.40708972214821
CSS (WENTIAN)           
1 53239U 22085A   26085.47667690  .00022078  00000+0  25348-3 0  9998
2 53239  41.4668 105.9518 0004375  27.8564 332.2509 15.61516360280348
CSS (MENGTIAN)          
1 54216U 22143A   26085.47667690  .00022078  00000+0  25348-3 0  9999
2 54216  41.4668 105.9518 0004375  27.8564 332.2509 15.61516360280344
TIANZHOU-9              
1 64786U 25149A   26085.47667690  .00022078  00000+0  25348-3 0  9991
2 64786  41.4668 105.9518 0004375  27.8564 332.2509 15.61516360280347
PROGRESS-MS 32          
1 65586U 25204A   26085.16418549  .00013248  00000+0  25200-3 0  9991
2 65586  51.6341 350.9181 0006235 233.8862 126.1549 15.48550942554507
YOTSUBA-KULOVER         
1 65941U 98067XN  26085.91912598  .00352967  57158-4  11609-2 0  9991
2 65941  51.6191 327.3500 0005386 197.9643 162.1173 15.89955766 26236
BOTAN                   
1 65943U 98067XQ  26085.67782396  .00312785  00000+0  10363-2 0  9996
2 65943  51.6222 328.7636 0005900 194.4478 165.6359 15.88964312 26193
HRC MONOBLOCK CAMERA    
1 66052U 98067XR  26085.89791811  .00052931  00000+0  55140-3 0  9991
2 66052  51.6293 338.5648 0003816 171.9083 188.1974 15.64010599 25084
