CCSDS_OMM_VERS = 2.0
CREATION_DATE  = 
ORIGINATOR     = 

OBJECT_NAME    = ISS (ZARYA)
OBJECT_ID      = 1998-067A
CENTER_NAME    = EARTH
REF_FRAME      = TEME
TIME_SYSTEM    = UTC
MEAN_ELEMENT_THEORY = SGP/SGP4

EPOCH          = 2026-03-26T19:25:42.681792
MEAN_MOTION    = 15.48566257
ECCENTRICITY   = .0006206
INCLINATION    = 51.6341
RA_OF_ASC_NODE = 347.7277
ARG_OF_PERICENTER = 236.0994
MEAN_ANOMALY   = 123.9405

EPHEMERIS_TYPE = 0
CLASSIFICATION_TYPE = U
NORAD_CAT_ID   = 25544
ELEMENT_SET_NO = 999
REV_AT_EPOCH   = 55898
BSTAR          = .24531E-3
MEAN_MOTION_DOT = .1289E-3
MEAN_MOTION_DDOT = 0

CCSDS_OMM_VERS = 2.0
CREATION_DATE  = 
ORIGINATOR     = 

OBJECT_NAME    = POISK
OBJECT_ID      = 2009-060A
CENTER_NAME    = EARTH
REF_FRAME      = TEME
TIME_SYSTEM    = UTC
MEAN_ELEMENT_THEORY = SGP/SGP4

EPOCH          = 2026-03-26T19:25:42.681792
MEAN_MOTION    = 15.48566257
ECCENTRICITY   = .0006206
INCLINATION    = 51.6341
RA_OF_ASC_NODE = 347.7277
ARG_OF_PERICENTER = 236.0994
MEAN_ANOMALY   = 123.9405

EPHEMERIS_TYPE = 0
CLASSIFICATION_TYPE = U
NORAD_CAT_ID   = 36086
ELEMENT_SET_NO = 999
REV_AT_EPOCH   = 55876
BSTAR          = .24531E-3
MEAN_MOTION_DOT = .1289E-3
MEAN_MOTION_DDOT = 0

CCSDS_OMM_VERS = 2.0
CREATION_DATE  = 
ORIGINATOR     = 

OBJECT_NAME    = CSS (TIANHE)
OBJECT_ID      = 2021-035A
CENTER_NAME    = EARTH
REF_FRAME      = TEME
TIME_SYSTEM    = UTC
MEAN_ELEMENT_THEORY = SGP/SGP4

EPOCH          = 2026-03-26T11:26:24.884160
MEAN_MOTION    = 15.61516360
ECCENTRICITY   = .0004375
INCLINATION    = 41.4668
RA_OF_ASC_NODE = 105.9518
ARG_OF_PERICENTER = 27.8564
MEAN_ANOMALY   = 332.2509

EPHEMERIS_TYPE = 0
CLASSIFICATION_TYPE = U
NORAD_CAT_ID   = 48274
ELEMENT_SET_NO = 999
REV_AT_EPOCH   = 28023
BSTAR          = .25348E-3
MEAN_MOTION_DOT = .22078E-3
MEAN_MOTION_DDOT = 0

CCSDS_OMM_VERS = 2.0
CREATION_DATE  = 
ORIGINATOR     = 

OBJECT_NAME    = ISS (NAUKA)
OBJECT_ID      = 2021-066A
CENTER_NAME    = EARTH
REF_FRAME      = TEME
TIME_SYSTEM    = UTC
MEAN_ELEMENT_THEORY = SGP/SGP4

EPOCH          = 2026-03-26T19:25:42.681792
MEAN_MOTION    = 15.48566257
ECCENTRICITY   = .0006206
INCLINATION    = 51.6341
RA_OF_ASC_NODE = 347.7277
ARG_OF_PERICENTER = 236.0994
MEAN_ANOMALY   = 123.9405

EPHEMERIS_TYPE = 0
CLASSIFICATION_TYPE = U
NORAD_CAT_ID   = 49044
ELEMENT_SET_NO = 999
REV_AT_EPOCH   = 55880
BSTAR          = .24531E-3
MEAN_MOTION_DOT = .1289E-3
MEAN_MOTION_DDOT = 0

CCSDS_OMM_VERS = 2.0
CREATION_DATE  = 
ORIGINATOR     = 

OBJECT_NAME    = FREGAT DEB
OBJECT_ID      = 2011-037PF
CENTER_NAME    = EARTH
REF_FRAME      = TEME
TIME_SYSTEM    = UTC
MEAN_ELEMENT_THEORY = SGP/SGP4

EPOCH          = 2026-03-26T20:18:43.795008
MEAN_MOTION    = 12.40708972
ECCENTRICITY   = .0962037
INCLINATION    = 51.6481
RA_OF_ASC_NODE = 249.2403
ARG_OF_PERICENTER = 98.7334
MEAN_ANOMALY   = 272.3546

EPHEMERIS_TYPE = 0
CLASSIFICATION_TYPE = U
NORAD_CAT_ID   = 49271
ELEMENT_SET_NO = 999
REV_AT_EPOCH   = 21482
BSTAR          = .1529E-1
MEAN_MOTION_DOT = .10762E-3
MEAN_MOTION_DDOT = 0

CCSDS_OMM_VERS = 2.0
CREATION_DATE  = 
ORIGINATOR     = 

OBJECT_NAME    = CSS (WENTIAN)
OBJECT_ID      = 2022-085A
CENTER_NAME    = EARTH
REF_FRAME      = TEME
TIME_SYSTEM    = UTC
MEAN_ELEMENT_THEORY = SGP/SGP4

EPOCH          = 2026-03-26T11:26:24.884160
MEAN_MOTION    = 15.61516360
ECCENTRICITY   = .0004375
INCLINATION    = 41.4668
RA_OF_ASC_NODE = 105.9518
ARG_OF_PERICENTER = 27.8564
MEAN_ANOMALY   = 332.2509

EPHEMERIS_TYPE = 0
CLASSIFICATION_TYPE = U
NORAD_CAT_ID   = 53239
ELEMENT_SET_NO = 999
REV_AT_EPOCH   = 28034
BSTAR          = .25348E-3
MEAN_MOTION_DOT = .22078E-3
MEAN_MOTION_DDOT = 0

CCSDS_OMM_VERS = 2.0
CREATION_DATE  = 
ORIGINATOR     = 

OBJECT_NAME    = CSS (MENGTIAN)
OBJECT_ID      = 2022-143A
CENTER_NAME    = EARTH
REF_FRAME      = TEME
TIME_SYSTEM    = UTC
MEAN_ELEMENT_THEORY = SGP/SGP4

EPOCH          = 2026-03-26T11:26:24.884160
MEAN_MOTION    = 15.61516360
ECCENTRICITY   = .0004375
INCLINATION    = 41.4668
RA_OF_ASC_NODE = 105.9518
ARG_OF_PERICENTER = 27.8564
MEAN_ANOMALY   = 332.2509

EPHEMERIS_TYPE = 0
CLASSIFICATION_TYPE = U
NORAD_CAT_ID   = 54216
ELEMENT_SET_NO = 999
REV_AT_EPOCH   = 28034
BSTAR          = .25348E-3
MEAN_MOTION_DOT = .22078E-3
MEAN_MOTION_DDOT = 0

CCSDS_OMM_VERS = 2.0
CREATION_DATE  = 
ORIGINATOR     = 

OBJECT_NAME    = TIANZHOU-9
OBJECT_ID      = 2025-149A
CENTER_NAME    = EARTH
REF_FRAME      = TEME
TIME_SYSTEM    = UTC
MEAN_ELEMENT_THEORY = SGP/SGP4

EPOCH          = 2026-03-26T11:26:24.884160
MEAN_MOTION    = 15.61516360
ECCENTRICITY   = .0004375
INCLINATION    = 41.4668
RA_OF_ASC_NODE = 105.9518
ARG_OF_PERICENTER = 27.8564
MEAN_ANOMALY   = 332.2509

EPHEMERIS_TYPE = 0
CLASSIFICATION_TYPE = U
NORAD_CAT_ID   = 64786
ELEMENT_SET_NO = 999
REV_AT_EPOCH   = 28034
BSTAR          = .25348E-3
MEAN_MOTION_DOT = .22078E-3
MEAN_MOTION_DDOT = 0

CCSDS_OMM_VERS = 2.0
CREATION_DATE  = 
ORIGINATOR     = 

OBJECT_NAME    = PROGRESS-MS 32
OBJECT_ID      = 2025-204A
CENTER_NAME    = EARTH
REF_FRAME      = TEME
TIME_SYSTEM    = UTC
MEAN_ELEMENT_THEORY = SGP/SGP4

EPOCH          = 2026-03-26T03:56:25.626336
MEAN_MOTION    = 15.48550942
ECCENTRICITY   = .00062355
INCLINATION    = 51.6341
RA_OF_ASC_NODE = 350.9181
ARG_OF_PERICENTER = 233.8862
MEAN_ANOMALY   = 126.1549

EPHEMERIS_TYPE = 0
CLASSIFICATION_TYPE = U
NORAD_CAT_ID   = 65586
ELEMENT_SET_NO = 999
REV_AT_EPOCH   = 55450
BSTAR          = .25199987E-3
MEAN_MOTION_DOT = .13248E-3
MEAN_MOTION_DDOT = 0

CCSDS_OMM_VERS = 2.0
CREATION_DATE  = 
ORIGINATOR     = 

OBJECT_NAME    = YOTSUBA-KULOVER
OBJECT_ID      = 1998-067XN
CENTER_NAME    = EARTH
REF_FRAME      = TEME
TIME_SYSTEM    = UTC
MEAN_ELEMENT_THEORY = SGP/SGP4

EPOCH          = 2026-03-26T22:03:32.484672
MEAN_MOTION    = 15.89955766
ECCENTRICITY   = .0005386
INCLINATION    = 51.6191
RA_OF_ASC_NODE = 327.3500
ARG_OF_PERICENTER = 197.9643
MEAN_ANOMALY   = 162.1173

EPHEMERIS_TYPE = 0
CLASSIFICATION_TYPE = U
NORAD_CAT_ID   = 65941
ELEMENT_SET_NO = 999
REV_AT_EPOCH   = 2623
BSTAR          = .11609E-2
MEAN_MOTION_DOT = .352967E-2
MEAN_MOTION_DDOT = .57158E-4

CCSDS_OMM_VERS = 2.0
CREATION_DATE  = 
ORIGINATOR     = 

OBJECT_NAME    = BOTAN
OBJECT_ID      = 1998-067XQ
CENTER_NAME    = EARTH
REF_FRAME      = TEME
TIME_SYSTEM    = UTC
MEAN_ELEMENT_THEORY = SGP/SGP4

EPOCH          = 2026-03-26T16:16:03.990144
MEAN_MOTION    = 15.88964312
ECCENTRICITY   = .00059
INCLINATION    = 51.6222
RA_OF_ASC_NODE = 328.7636
ARG_OF_PERICENTER = 194.4478
MEAN_ANOMALY   = 165.6359

EPHEMERIS_TYPE = 0
CLASSIFICATION_TYPE = U
NORAD_CAT_ID   = 65943
ELEMENT_SET_NO = 999
REV_AT_EPOCH   = 2619
BSTAR          = .10363E-2
MEAN_MOTION_DOT = .312785E-2
MEAN_MOTION_DDOT = 0

CCSDS_OMM_VERS = 2.0
CREATION_DATE  = 
ORIGINATOR     = 

OBJECT_NAME    = HRC MONOBLOCK CAMERA
OBJECT_ID      = 1998-067XR
CENTER_NAME    = EARTH
REF_FRAME      = TEME
TIME_SYSTEM    = UTC
MEAN_ELEMENT_THEORY = SGP/SGP4

EPOCH          = 2026-03-26T21:33:00.124704
MEAN_MOTION    = 15.64010599
ECCENTRICITY   = .0003816
INCLINATION    = 51.6293
RA_OF_ASC_NODE = 338.5648
ARG_OF_PERICENTER = 171.9083
MEAN_ANOMALY   = 188.1974

EPHEMERIS_TYPE = 0
CLASSIFICATION_TYPE = U
NORAD_CAT_ID   = 66052
ELEMENT_SET_NO = 999
REV_AT_EPOCH   = 2508
BSTAR          = .5514E-3
MEAN_MOTION_DOT = .52931E-3
MEAN_MOTION_DDOT = 0

